{
  "type": "FeatureCollection",
  "features": [
    {
      "type": "Feature",
      "properties": {
        "norad_id": 43823,
        "name": "GEO-KOMPSAT-2A",
        "group": "weather",
        "lat": 0.03299863886404262,
        "lon": 153.17098800538392,
        "alt_km": 35785.63451336271,
        "timestamp": "2025-12-03T20:47:57.859345+00:00",
        "meta_object_name": "GEO-KOMPSAT-2A",
        "meta_object_id": "2018-100A",
        "meta_epoch": "2025-12-03T10:56:29.392800",
        "meta_mean_motion": 1.00269864,
        "meta_eccentricity": 5.39e-05,
        "meta_inclination": 0.0597,
        "meta_ra_of_asc_node": 121.7318,
        "meta_arg_of_pericenter": 93.8733,
        "meta_mean_anomaly": 149.3248,
        "meta_ephemeris_type": 0,
        "meta_classification_type": "U",
        "meta_norad_cat_id": 43823,
        "meta_element_set_no": 999,
        "meta_rev_at_epoch": 2566,
        "meta_bstar": 0,
        "meta_mean_motion_dot": -3.25e-06,
        "meta_mean_motion_ddot": 0,
        "tle_line1": "1 43823U 18100A   25337.45589575 -.00000325  00000+0  00000+0 0  9997",
        "tle_line2": "2 43823   0.0597 121.7318 0000539  93.8733 149.3248  1.00269864 25662"
      },
      "geometry": {
        "type": "Point",
        "coordinates": [
          153.17098800538392,
          0.03299863886404262
        ]
      }
    },
    {
      "type": "Feature",
      "properties": {
        "norad_id": 44387,
        "name": "METEOR-M2 2",
        "group": "weather",
        "lat": -79.46719799617667,
        "lon": 80.09210277248113,
        "alt_km": 818.3009406242609,
        "timestamp": "2025-12-03T20:47:57.859357+00:00",
        "meta_object_name": "METEOR-M2 2",
        "meta_object_id": "2019-038A",
        "meta_epoch": "2025-12-03T12:49:04.899072",
        "meta_mean_motion": 14.24285098,
        "meta_eccentricity": 8.82e-05,
        "meta_inclination": 98.8963,
        "meta_ra_of_asc_node": 317.1507,
        "meta_arg_of_pericenter": 167.3558,
        "meta_mean_anomaly": 192.7642,
        "meta_ephemeris_type": 0,
        "meta_classification_type": "U",
        "meta_norad_cat_id": 44387,
        "meta_element_set_no": 999,
        "meta_rev_at_epoch": 33344,
        "meta_bstar": 0.00013454,
        "meta_mean_motion_dot": 2.65e-06,
        "meta_mean_motion_ddot": 0,
        "tle_line1": "1 44387U 19038A   25337.53408448  .00000265  00000+0  13454-3 0  9995",
        "tle_line2": "2 44387  98.8963 317.1507 0000882 167.3558 192.7642 14.24285098333449"
      },
      "geometry": {
        "type": "Point",
        "coordinates": [
          80.09210277248113,
          -79.46719799617667
        ]
      }
    },
    {
      "type": "Feature",
      "properties": {
        "norad_id": 47719,
        "name": "ARKTIKA-M 1",
        "group": "weather",
        "lat": 62.75207515691226,
        "lon": -173.75270585485168,
        "alt_km": 38642.646126366315,
        "timestamp": "2025-12-03T20:47:57.859370+00:00",
        "meta_object_name": "ARKTIKA-M 1",
        "meta_object_id": "2021-016A",
        "meta_epoch": "2025-12-01T02:41:41.634816",
        "meta_mean_motion": 2.00613156,
        "meta_eccentricity": 0.71974708,
        "meta_inclination": 63.1756,
        "meta_ra_of_asc_node": 85.6045,
        "meta_arg_of_pericenter": 269.084,
        "meta_mean_anomaly": 15.7076,
        "meta_ephemeris_type": 0,
        "meta_classification_type": "U",
        "meta_norad_cat_id": 47719,
        "meta_element_set_no": 999,
        "meta_rev_at_epoch": 3481,
        "meta_bstar": 0,
        "meta_mean_motion_dot": -1.2e-07,
        "meta_mean_motion_ddot": 0,
        "tle_line1": "1 47719U 21016A   25335.11228744 -.00000012  00000+0  00000+0 0  9997",
        "tle_line2": "2 47719  63.1756  85.6045 7197470 269.0840  15.7076  2.00613156 34816"
      },
      "geometry": {
        "type": "Point",
        "coordinates": [
          -173.75270585485168,
          62.75207515691226
        ]
      }
    },
    {
      "type": "Feature",
      "properties": {
        "norad_id": 49008,
        "name": "FENGYUN 3E",
        "group": "weather",
        "lat": 4.236367632680751,
        "lon": -22.160406534588525,
        "alt_km": 827.7011009903927,
        "timestamp": "2025-12-03T20:47:57.859383+00:00",
        "meta_object_name": "FENGYUN 3E",
        "meta_object_id": "2021-062A",
        "meta_epoch": "2025-12-03T12:19:23.117664",
        "meta_mean_motion": 14.19878009,
        "meta_eccentricity": 7.52e-05,
        "meta_inclination": 98.7476,
        "meta_ra_of_asc_node": 338.1441,
        "meta_arg_of_pericenter": 324.2352,
        "meta_mean_anomaly": 35.8774,
        "meta_ephemeris_type": 0,
        "meta_classification_type": "U",
        "meta_norad_cat_id": 49008,
        "meta_element_set_no": 999,
        "meta_rev_at_epoch": 22881,
        "meta_bstar": 4.4101e-05,
        "meta_mean_motion_dot": 5e-07,
        "meta_mean_motion_ddot": 0,
        "tle_line1": "1 49008U 21062A   25337.51346201  .00000050  00000+0  44101-4 0  9992",
        "tle_line2": "2 49008  98.7476 338.1441 0000752 324.2352  35.8774 14.19878009228815"
      },
      "geometry": {
        "type": "Point",
        "coordinates": [
          -22.160406534588525,
          4.236367632680751
        ]
      }
    },
    {
      "type": "Feature",
      "properties": {
        "norad_id": 51850,
        "name": "GOES 18",
        "group": "weather",
        "lat": 0.006417769845665281,
        "lon": -112.09346748482447,
        "alt_km": 35783.87004294591,
        "timestamp": "2025-12-03T20:47:57.859395+00:00",
        "meta_object_name": "GOES 18",
        "meta_object_id": "2022-021A",
        "meta_epoch": "2025-12-03T12:13:38.836128",
        "meta_mean_motion": 1.0027044,
        "meta_eccentricity": 8.1e-05,
        "meta_inclination": 0.019,
        "meta_ra_of_asc_node": 145.1807,
        "meta_arg_of_pericenter": 144.6435,
        "meta_mean_anomaly": 189.1828,
        "meta_ephemeris_type": 0,
        "meta_classification_type": "U",
        "meta_norad_cat_id": 51850,
        "meta_element_set_no": 999,
        "meta_rev_at_epoch": 463,
        "meta_bstar": 0,
        "meta_mean_motion_dot": 1.15e-06,
        "meta_mean_motion_ddot": 0,
        "tle_line1": "1 51850U 22021A   25337.50947727  .00000115  00000+0  00000+0 0  9992",
        "tle_line2": "2 51850   0.0190 145.1807 0000810 144.6435 189.1828  1.00270440  4631"
      },
      "geometry": {
        "type": "Point",
        "coordinates": [
          -112.09346748482447,
          0.006417769845665281
        ]
      }
    },
    {
      "type": "Feature",
      "properties": {
        "norad_id": 54234,
        "name": "NOAA 21 (JPSS-2)",
        "group": "weather",
        "lat": 21.794378233678113,
        "lon": -89.2424958866801,
        "alt_km": 825.1398807188361,
        "timestamp": "2025-12-03T20:47:57.859406+00:00",
        "meta_object_name": "NOAA 21 (JPSS-2)",
        "meta_object_id": "2022-150A",
        "meta_epoch": "2025-12-03T10:32:45.017952",
        "meta_mean_motion": 14.19519894,
        "meta_eccentricity": 0.0002535,
        "meta_inclination": 98.7448,
        "meta_ra_of_asc_node": 273.8643,
        "meta_arg_of_pericenter": 55.2971,
        "meta_mean_anomaly": 304.8444,
        "meta_ephemeris_type": 0,
        "meta_classification_type": "U",
        "meta_norad_cat_id": 54234,
        "meta_element_set_no": 999,
        "meta_rev_at_epoch": 15877,
        "meta_bstar": 9.3322e-05,
        "meta_mean_motion_dot": 1.53e-06,
        "meta_mean_motion_ddot": 0,
        "tle_line1": "1 54234U 22150A   25337.43940993  .00000153  00000+0  93322-4 0  9990",
        "tle_line2": "2 54234  98.7448 273.8643 0002535  55.2971 304.8444 14.19519894158773"
      },
      "geometry": {
        "type": "Point",
        "coordinates": [
          -89.2424958866801,
          21.794378233678113
        ]
      }
    },
    {
      "type": "Feature",
      "properties": {
        "norad_id": 54743,
        "name": "METEOSAT-12 (MTG-I1)",
        "group": "weather",
        "lat": -0.04360493405815314,
        "lon": 24.643239567700622,
        "alt_km": 35790.34122731447,
        "timestamp": "2025-12-03T20:47:57.859418+00:00",
        "meta_object_name": "METEOSAT-12 (MTG-I1)",
        "meta_object_id": "2022-170C",
        "meta_epoch": "2025-12-03T06:54:18.722016",
        "meta_mean_motion": 1.00273639,
        "meta_eccentricity": 0.0001496,
        "meta_inclination": 0.7174,
        "meta_ra_of_asc_node": 29.9886,
        "meta_arg_of_pericenter": 215.4423,
        "meta_mean_anomaly": 290.2363,
        "meta_ephemeris_type": 0,
        "meta_classification_type": "U",
        "meta_norad_cat_id": 54743,
        "meta_element_set_no": 999,
        "meta_rev_at_epoch": 1101,
        "meta_bstar": 0,
        "meta_mean_motion_dot": 1.2e-07,
        "meta_mean_motion_ddot": 0,
        "tle_line1": "1 54743U 22170C   25337.28771669  .00000012  00000+0  00000+0 0  9992",
        "tle_line2": "2 54743   0.7174  29.9886 0001496 215.4423 290.2363  1.00273639 11016"
      },
      "geometry": {
        "type": "Point",
        "coordinates": [
          24.643239567700622,
          -0.04360493405815314
        ]
      }
    }
  ]
}